NORAD_CAT_ID,OBJECT_NAME,OBJECT_TYPE,EPOCH,MEAN_MOTION,ECCENTRICITY,INCLINATION,RA_OF_ASC_NODE,ARG_OF_PERICENTER,MEAN_ANOMALY,BSTAR,MEAN_MOTION_DOT,MEAN_MOTION_DDOT,TLE_LINE0,TLE_LINE1,TLE_LINE2,SEMIMAJOR_AXIS,PERIOD,APOGEE,PERIGEE,DECAYED
55935.0,STARLINK-5920,PAYLOAD,2024-08-20 04:46:48,14.9834837,0.000353,69.9993,272.8508,273.3048,86.7707,0.0002712,3.146e-05,0.0,0 STARLINK-5920,1 55935U 23037X   24233.19917588  .00003146  00000-0  27120-3 0  9993,2 55935  69.9993 272.8508 0003530 273.3048  86.7707 14.98348370 79462,6950.136,96.106,574.454,569.548,0.0
55935.0,STARLINK-5920,PAYLOAD,2024-08-20 12:47:28,14.983491,0.0003517,69.9991,272.009,273.287,86.7887,0.00023751,2.743e-05,0.0,0 STARLINK-5920,1 55935U 23037X   24233.53297191  .00002743  00000-0  23751-3 0  9990,2 55935  69.9991 272.0090 0003517 273.2870  86.7887 14.98349100 79174,6950.134,96.106,574.443,569.554,0.0
55935.0,STARLINK-5920,PAYLOAD,2024-08-21 04:48:49,14.98339207,0.0003469,69.999,270.3254,272.9356,87.1407,-3.7729e-05,-5.43e-06,0.0,0 STARLINK-5920,1 55935U 23037X   24234.20057135 -.00000543  00000-0 -37729-4 0  9996,2 55935  69.9990 270.3254 0003469 272.9356  87.1407 14.98339207 79616,6950.164,96.106,574.44,569.618,0.0
55935.0,STARLINK-5920,PAYLOAD,2024-08-21 12:49:29,14.98339511,0.0003461,69.9982,269.4835,272.7014,87.3749,2.7432e-06,-6e-07,0.0,0 STARLINK-5920,1 55935U 23037X   24234.53437175 -.00000060  00000-0  27432-5 0  9992,2 55935  69.9982 269.4835 0003461 272.7014  87.3749 14.98339511 79329,6950.163,96.106,574.434,569.623,0.0
